CCSDS_OMM_VERS = 2.0
CREATION_DATE  = 
ORIGINATOR     = 

OBJECT_NAME    = SL-3 R/B
OBJECT_ID      = 1982-079B
CENTER_NAME    = EARTH
REF_FRAME      = TEME
TIME_SYSTEM    = UTC
MEAN_ELEMENT_THEORY = SGP/SGP4

EPOCH          = 2025-12-15T07:23:21.202656
MEAN_MOTION    = 15.23621742
ECCENTRICITY   = .0027074
INCLINATION    = 81.1469
RA_OF_ASC_NODE = 292.6334
ARG_OF_PERICENTER = 90.8212
MEAN_ANOMALY   = 269.6123

EPHEMERIS_TYPE = 0
CLASSIFICATION_TYPE = U
NORAD_CAT_ID   = 13403
ELEMENT_SET_NO = 999
REV_AT_EPOCH   = 36484
BSTAR          = .18869687E-3
MEAN_MOTION_DOT = .4591E-4
MEAN_MOTION_DDOT = 0

CCSDS_OMM_VERS = 2.0
CREATION_DATE  = 
ORIGINATOR     = 

OBJECT_NAME    = SL-14 R/B
OBJECT_ID      = 1982-092B
CENTER_NAME    = EARTH
REF_FRAME      = TEME
TIME_SYSTEM    = UTC
MEAN_ELEMENT_THEORY = SGP/SGP4

EPOCH          = 2025-12-15T09:27:14.985216
MEAN_MOTION    = 14.86558217
ECCENTRICITY   = .00193382
INCLINATION    = 82.5680
RA_OF_ASC_NODE = 220.2298
ARG_OF_PERICENTER = 217.6946
MEAN_ANOMALY   = 315.4118

EPHEMERIS_TYPE = 0
CLASSIFICATION_TYPE = U
NORAD_CAT_ID   = 13553
ELEMENT_SET_NO = 999
REV_AT_EPOCH   = 31640
BSTAR          = .51740999E-4
MEAN_MOTION_DOT = .484E-5
MEAN_MOTION_DDOT = 0

CCSDS_OMM_VERS = 2.0
CREATION_DATE  = 
ORIGINATOR     = 

OBJECT_NAME    = SL-3 R/B
OBJECT_ID      = 1983-010B
CENTER_NAME    = EARTH
REF_FRAME      = TEME
TIME_SYSTEM    = UTC
MEAN_ELEMENT_THEORY = SGP/SGP4

EPOCH          = 2025-12-15T08:45:50.556672
MEAN_MOTION    = 15.43533771
ECCENTRICITY   = .00170548
INCLINATION    = 81.1032
RA_OF_ASC_NODE = 105.4134
ARG_OF_PERICENTER = 341.8889
MEAN_ANOMALY   = 18.1744

EPHEMERIS_TYPE = 0
CLASSIFICATION_TYPE = U
NORAD_CAT_ID   = 13819
ELEMENT_SET_NO = 999
REV_AT_EPOCH   = 34492
BSTAR          = .23458907E-3
MEAN_MOTION_DOT = .10611E-3
MEAN_MOTION_DDOT = 0

CCSDS_OMM_VERS = 2.0
CREATION_DATE  = 
ORIGINATOR     = 

OBJECT_NAME    = SL-3 R/B
OBJECT_ID      = 1983-075B
CENTER_NAME    = EARTH
REF_FRAME      = TEME
TIME_SYSTEM    = UTC
MEAN_ELEMENT_THEORY = SGP/SGP4

EPOCH          = 2025-12-15T06:18:06.861888
MEAN_MOTION    = 15.36190942
ECCENTRICITY   = .00230419
INCLINATION    = 97.6103
RA_OF_ASC_NODE = 345.8311
ARG_OF_PERICENTER = 166.5180
MEAN_ANOMALY   = 193.6684

EPHEMERIS_TYPE = 0
CLASSIFICATION_TYPE = U
NORAD_CAT_ID   = 14208
ELEMENT_SET_NO = 999
REV_AT_EPOCH   = 31718
BSTAR          = .22561852E-3
MEAN_MOTION_DOT = .7939E-4
MEAN_MOTION_DDOT = 0

CCSDS_OMM_VERS = 2.0
CREATION_DATE  = 
ORIGINATOR     = 

OBJECT_NAME    = COSMOS 1536
OBJECT_ID      = 1984-013A
CENTER_NAME    = EARTH
REF_FRAME      = TEME
TIME_SYSTEM    = UTC
MEAN_ELEMENT_THEORY = SGP/SGP4

EPOCH          = 2025-12-15T07:17:26.126304
MEAN_MOTION    = 15.22548184
ECCENTRICITY   = .00137236
INCLINATION    = 82.5454
RA_OF_ASC_NODE = 191.6216
ARG_OF_PERICENTER = 215.9164
MEAN_ANOMALY   = 144.1151

EPHEMERIS_TYPE = 0
CLASSIFICATION_TYPE = U
NORAD_CAT_ID   = 14699
ELEMENT_SET_NO = 999
REV_AT_EPOCH   = 25977
BSTAR          = .19038142E-3
MEAN_MOTION_DOT = .4459E-4
MEAN_MOTION_DDOT = 0

CCSDS_OMM_VERS = 2.0
CREATION_DATE  = 
ORIGINATOR     = 

OBJECT_NAME    = SL-14 R/B
OBJECT_ID      = 1984-027B
CENTER_NAME    = EARTH
REF_FRAME      = TEME
TIME_SYSTEM    = UTC
MEAN_ELEMENT_THEORY = SGP/SGP4

EPOCH          = 2025-12-15T07:35:49.724736
MEAN_MOTION    = 14.85877221
ECCENTRICITY   = .0016412
INCLINATION    = 82.5413
RA_OF_ASC_NODE = 324.1394
ARG_OF_PERICENTER = 251.4386
MEAN_ANOMALY   = 108.5048

EPHEMERIS_TYPE = 0
CLASSIFICATION_TYPE = U
NORAD_CAT_ID   = 14820
ELEMENT_SET_NO = 999
REV_AT_EPOCH   = 23510
BSTAR          = .62633842E-4
MEAN_MOTION_DOT = .571E-5
MEAN_MOTION_DDOT = 0

CCSDS_OMM_VERS = 2.0
CREATION_DATE  = 
ORIGINATOR     = 

OBJECT_NAME    = SL-8 R/B
OBJECT_ID      = 1985-006B
CENTER_NAME    = EARTH
REF_FRAME      = TEME
TIME_SYSTEM    = UTC
MEAN_ELEMENT_THEORY = SGP/SGP4

EPOCH          = 2025-12-15T07:50:52.043136
MEAN_MOTION    = 14.37722663
ECCENTRICITY   = .00187923
INCLINATION    = 74.0467
RA_OF_ASC_NODE = 56.3750
ARG_OF_PERICENTER = 347.9995
MEAN_ANOMALY   = 78.7419

EPHEMERIS_TYPE = 0
CLASSIFICATION_TYPE = U
NORAD_CAT_ID   = 15483
ELEMENT_SET_NO = 999
REV_AT_EPOCH   = 14190
BSTAR          = .87949081E-4
MEAN_MOTION_DOT = .239E-5
MEAN_MOTION_DDOT = 0

CCSDS_OMM_VERS = 2.0
CREATION_DATE  = 
ORIGINATOR     = 

OBJECT_NAME    = SL-12 R/B(2)
OBJECT_ID      = 1985-042D
CENTER_NAME    = EARTH
REF_FRAME      = TEME
TIME_SYSTEM    = UTC
MEAN_ELEMENT_THEORY = SGP/SGP4

EPOCH          = 2025-12-15T05:25:16.687776
MEAN_MOTION    = 14.21952773
ECCENTRICITY   = .00375369
INCLINATION    = 71.1082
RA_OF_ASC_NODE = 266.1677
ARG_OF_PERICENTER = 257.8655
MEAN_ANOMALY   = 254.4074

EPHEMERIS_TYPE = 0
CLASSIFICATION_TYPE = U
NORAD_CAT_ID   = 15772
ELEMENT_SET_NO = 999
REV_AT_EPOCH   = 10238
BSTAR          = .41802182E-4
MEAN_MOTION_DOT = .45E-6
MEAN_MOTION_DDOT = 0

CCSDS_OMM_VERS = 2.0
CREATION_DATE  = 
ORIGINATOR     = 

OBJECT_NAME    = SL-14 R/B
OBJECT_ID      = 1985-069B
CENTER_NAME    = EARTH
REF_FRAME      = TEME
TIME_SYSTEM    = UTC
MEAN_ELEMENT_THEORY = SGP/SGP4

EPOCH          = 2025-12-15T07:50:54.987648
MEAN_MOTION    = 14.86327651
ECCENTRICITY   = .00202574
INCLINATION    = 82.5269
RA_OF_ASC_NODE = 104.2706
ARG_OF_PERICENTER = 110.5075
MEAN_ANOMALY   = 249.8319

EPHEMERIS_TYPE = 0
CLASSIFICATION_TYPE = U
NORAD_CAT_ID   = 15945
ELEMENT_SET_NO = 999
REV_AT_EPOCH   = 16030
BSTAR          = .66306535E-4
MEAN_MOTION_DOT = .611E-5
MEAN_MOTION_DDOT = 0

CCSDS_OMM_VERS = 2.0
CREATION_DATE  = 
ORIGINATOR     = 

OBJECT_NAME    = SL-16 R/B
OBJECT_ID      = 1985-097B
CENTER_NAME    = EARTH
REF_FRAME      = TEME
TIME_SYSTEM    = UTC
MEAN_ELEMENT_THEORY = SGP/SGP4

EPOCH          = 2025-12-15T07:56:18.235968
MEAN_MOTION    = 14.16585703
ECCENTRICITY   = .00068573
INCLINATION    = 71.0035
RA_OF_ASC_NODE = 318.1480
ARG_OF_PERICENTER = 6.8027
MEAN_ANOMALY   = 101.0910

EPHEMERIS_TYPE = 0
CLASSIFICATION_TYPE = U
NORAD_CAT_ID   = 16182
ELEMENT_SET_NO = 999
REV_AT_EPOCH   = 7528
BSTAR          = .17025512E-3
MEAN_MOTION_DOT = .292E-5
MEAN_MOTION_DDOT = 0

CCSDS_OMM_VERS = 2.0
CREATION_DATE  = 
ORIGINATOR     = 

OBJECT_NAME    = SL-14 R/B
OBJECT_ID      = 1986-006B
CENTER_NAME    = EARTH
REF_FRAME      = TEME
TIME_SYSTEM    = UTC
MEAN_ELEMENT_THEORY = SGP/SGP4

EPOCH          = 2025-12-15T06:10:55.242912
MEAN_MOTION    = 14.86675169
ECCENTRICITY   = .00763747
INCLINATION    = 82.5266
RA_OF_ASC_NODE = 339.1817
ARG_OF_PERICENTER = 191.4090
MEAN_ANOMALY   = 168.5400

EPHEMERIS_TYPE = 0
CLASSIFICATION_TYPE = U
NORAD_CAT_ID   = 16496
ELEMENT_SET_NO = 999
REV_AT_EPOCH   = 13666
BSTAR          = .71508048E-4
MEAN_MOTION_DOT = .696E-5
MEAN_MOTION_DDOT = 0

CCSDS_OMM_VERS = 2.0
CREATION_DATE  = 
ORIGINATOR     = 

OBJECT_NAME    = COSMOS 1743
OBJECT_ID      = 1986-034A
CENTER_NAME    = EARTH
REF_FRAME      = TEME
TIME_SYSTEM    = UTC
MEAN_ELEMENT_THEORY = SGP/SGP4

EPOCH          = 2025-12-15T05:35:36.777984
MEAN_MOTION    = 15.52297604
ECCENTRICITY   = .00046967
INCLINATION    = 82.5340
RA_OF_ASC_NODE = 162.0015
ARG_OF_PERICENTER = 242.1058
MEAN_ANOMALY   = 117.9719

EPHEMERIS_TYPE = 0
CLASSIFICATION_TYPE = U
NORAD_CAT_ID   = 16719
ELEMENT_SET_NO = 999
REV_AT_EPOCH   = 16712
BSTAR          = .36968109E-3
MEAN_MOTION_DOT = .22546E-3
MEAN_MOTION_DDOT = 0

