SL-3 R/B                
1 13403U 82079B   25349.30788429  .00004591  00000+0  18870-3 0  9996
2 13403  81.1469 292.6334 0027074  90.8212 269.6123 15.23621742364840
SL-14 R/B               
1 13553U 82092B   25349.39392344  .00000484  00000+0  51741-4 0  9995
2 13553  82.5680 220.2298 0019338 217.6946 315.4118 14.86558217316406
SL-3 R/B                
1 13819U 83010B   25349.36516848  .00010611  00000+0  23459-3 0  9992
2 13819  81.1032 105.4134 0017054 341.8889  18.1744 15.43533771344921
SL-3 R/B                
1 14208U 83075B   25349.26257942  .00007939  00000+0  22562-3 0  9995
2 14208  97.6103 345.8311 0023041 166.5180 193.6684 15.36190942317182
COSMOS 1536             
1 14699U 84013A   25349.30377461  .00004459  00000+0  19038-3 0  9994
2 14699  82.5454 191.6216 0013723 215.9164 144.1151 15.22548184259776
SL-14 R/B               
1 14820U 84027B   25349.31654774  .00000571  00000+0  62634-4 0  9993
2 14820  82.5413 324.1394 0016412 251.4386 108.5048 14.85877221235101
SL-8 R/B                
1 15483U 85006B   25349.32699124  .00000239  00000+0  87949-4 0  9993
2 15483  74.0467  56.3750 0018792 347.9995  78.7419 14.37722663141902
SL-12 R/B(2)            
1 15772U 85042D   25349.22588759  .00000045  00000+0  41802-4 0  9997
2 15772  71.1082 266.1677 0037536 257.8655 254.4074 14.21952773102381
SL-14 R/B               
1 15945U 85069B   25349.32702532  .00000611  00000+0  66307-4 0  9992
2 15945  82.5269 104.2706 0020257 110.5075 249.8319 14.86327651160302
SL-16 R/B               
1 16182U 85097B   25349.33076662  .00000292  00000+0  17026-3 0  9994
2 16182  71.0035 318.1480 0006857   6.8027 101.0910 14.16585703 75284
SL-14 R/B               
1 16496U 86006B   25349.25758383  .00000696  00000+0  71508-4 0  9995
2 16496  82.5266 339.1817 0076374 191.4090 168.5400 14.86675169136669
COSMOS 1743             
1 16719U 86034A   25349.23306456  .00022546  00000+0  36968-3 0  9990
2 16719  82.5340 162.0015 0004696 242.1058 117.9719 15.52297604167123
